start=new Date('2022-02-03T00:00:00.000Z').valueOf();
sats=[{"TLE_LINE2":"2 50188  53.2164 135.9902 0002219  25.5665 250.1496 15.73220696  3705","RCS_SIZE":"LARGE","ECCENTRICITY":"0.00022190","MEAN_MOTION":"15.73220696","COUNTRY_CODE":"US","MEAN_MOTION_DDOT":"0.0000000000000","CENTER_NAME":"EARTH","LAUNCH_DATE":"2021-12-18","ARG_OF_PERICENTER":"25.5665","SITE":"AFWTR","PERIAPSIS":"348.208","EPOCH":"2022-02-02T22:00:00.999936","TIME_SYSTEM":"UTC","MEAN_MOTION_DOT":"0.00000383","BSTAR":"0.00000715090000","MEAN_ANOMALY":"250.1496","OBJECT_ID":"2021-125AJ","OBJECT_NAME":"STARLINK-3275","APOAPSIS":"351.194","ELEMENT_SET_NO":"999","PERIOD":"91.532","REF_FRAME":"TEME","CLASSIFICATION_TYPE":"U","EPHEMERIS_TYPE":"0","NORAD_CAT_ID":"50188","RA_OF_ASC_NODE":"135.9902","REV_AT_EPOCH":"370","MEAN_ELEMENT_THEORY":"SGP4","GP_ID":"195193777","FILE":"3290513","TLE_LINE1":"1 50188U 21125AJ  22033.91667824  .00000383  00000-0  71509-5 0  9997","DECAY_DATE":null,"OBJECT_TYPE":"PAYLOAD","SEMIMAJOR_AXIS":"6727.836","INCLINATION":"53.2164"},{"EPOCH":"2022-02-02T22:00:00.999936","TIME_SYSTEM":"UTC","MEAN_MOTION_DOT":"0.00001665","BSTAR":"0.00001627300000","MEAN_ANOMALY":"246.1506","OBJECT_ID":"2021-125AK","OBJECT_NAME":"STARLINK-3276","SITE":"AFWTR","PERIAPSIS":"348.039","CLASSIFICATION_TYPE":"U","APOAPSIS":"351.353","ELEMENT_SET_NO":"999","PERIOD":"91.532","REF_FRAME":"TEME","ECCENTRICITY":"0.00024630","MEAN_MOTION":"15.73222427","COUNTRY_CODE":"US","MEAN_MOTION_DDOT":"0.0000000000000","RCS_SIZE":"LARGE","TLE_LINE2":"2 50189  53.2165 135.9980 0002463  25.8351 246.1506 15.73222427  3700","LAUNCH_DATE":"2021-12-18","ARG_OF_PERICENTER":"25.8351","CENTER_NAME":"EARTH","FILE":"3290513","TLE_LINE1":"1 50189U 21125AK  22033.91667824  .00001665  00000-0  16273-4 0  9998","DECAY_DATE":null,"SEMIMAJOR_AXIS":"6727.831","INCLINATION":"53.2165","OBJECT_TYPE":"PAYLOAD","EPHEMERIS_TYPE":"0","NORAD_CAT_ID":"50189","MEAN_ELEMENT_THEORY":"SGP4","GP_ID":"195195028","RA_OF_ASC_NODE":"135.9980","REV_AT_EPOCH":"370"},{"LAUNCH_DATE":"2021-12-18","ARG_OF_PERICENTER":"14.5384","CENTER_NAME":"EARTH","COUNTRY_CODE":"US","MEAN_MOTION_DDOT":"0.0000000000000","ECCENTRICITY":"0.00023830","MEAN_MOTION":"15.73215701","TLE_LINE2":"2 50190  53.2177 135.9795 0002383  14.5384 264.8910 15.73215701  3704","RCS_SIZE":"LARGE","CLASSIFICATION_TYPE":"U","PERIOD":"91.532","REF_FRAME":"TEME","APOAPSIS":"351.319","ELEMENT_SET_NO":"999","MEAN_ANOMALY":"264.8910","MEAN_MOTION_DOT":"0.00001772","BSTAR":"0.00001704400000","OBJECT_ID":"2021-125AL","OBJECT_NAME":"STARLINK-3268","TIME_SYSTEM":"UTC","EPOCH":"2022-02-02T22:00:00.999936","PERIAPSIS":"348.112","SITE":"AFWTR","GP_ID":"195194779","MEAN_ELEMENT_THEORY":"SGP4","REV_AT_EPOCH":"370","RA_OF_ASC_NODE":"135.9795","EPHEMERIS_TYPE":"0","NORAD_CAT_ID":"50190","SEMIMAJOR_AXIS":"6727.850","INCLINATION":"53.2177","OBJECT_TYPE":"PAYLOAD","TLE_LINE1":"1 50190U 21125AL  22033.91667824  .00001772  00000-0  17044-4 0  9996","DECAY_DATE":null,"FILE":"3290513"},{"PERIOD":"93.077","REF_FRAME":"TEME","APOAPSIS":"426.259","ELEMENT_SET_NO":"999","CLASSIFICATION_TYPE":"U","PERIAPSIS":"424.172","SITE":"AFWTR","MEAN_ANOMALY":"73.4794","MEAN_MOTION_DOT":"-0.00654840","BSTAR":"-0.01381700000000","OBJECT_NAME":"STARLINK-3273","OBJECT_ID":"2021-125AM","TIME_SYSTEM":"UTC","EPOCH":"2022-02-02T22:00:00.999936","CENTER_NAME":"EARTH","LAUNCH_DATE":"2021-12-18","ARG_OF_PERICENTER":"43.5111","TLE_LINE2":"2 50191  53.2172 137.6730 0001534  43.5111  73.4794 15.47100368  3690","RCS_SIZE":"LARGE","COUNTRY_CODE":"US","MEAN_MOTION_DDOT":"0.0000000000000","ECCENTRICITY":"0.00015340","MEAN_MOTION":"15.47100368","OBJECT_TYPE":"PAYLOAD","SEMIMAJOR_AXIS":"6803.351","INCLINATION":"53.2172","TLE_LINE1":"1 50191U 21125AM  22033.91667824 -.00654840  00000-0 -13817-1 0  9990","DECAY_DATE":null,"FILE":"3290513","REV_AT_EPOCH":"369","RA_OF_ASC_NODE":"137.6730","GP_ID":"195194027","MEAN_ELEMENT_THEORY":"SGP4","NORAD_CAT_ID":"50191","EPHEMERIS_TYPE":"0"},{"CENTER_NAME":"EARTH","LAUNCH_DATE":"2021-12-18","ARG_OF_PERICENTER":"16.6587","TLE_LINE2":"2 50192  53.2175 135.9769 0002307  16.6587 263.6972 15.73212890  3700","RCS_SIZE":"LARGE","COUNTRY_CODE":"US","MEAN_MOTION_DDOT":"0.0000000000000","ECCENTRICITY":"0.00023070","MEAN_MOTION":"15.73212890","PERIOD":"91.532","REF_FRAME":"TEME","APOAPSIS":"351.276","ELEMENT_SET_NO":"999","CLASSIFICATION_TYPE":"U","PERIAPSIS":"348.171","SITE":"AFWTR","MEAN_ANOMALY":"263.6972","MEAN_MOTION_DOT":"0.00002388","BSTAR":"0.00002142300000","OBJECT_ID":"2021-125AN","OBJECT_NAME":"STARLINK-3259","EPOCH":"2022-02-02T22:00:00.999936","TIME_SYSTEM":"UTC","REV_AT_EPOCH":"370","RA_OF_ASC_NODE":"135.9769","GP_ID":"195194277","MEAN_ELEMENT_THEORY":"SGP4","NORAD_CAT_ID":"50192","EPHEMERIS_TYPE":"0","OBJECT_TYPE":"PAYLOAD","INCLINATION":"53.2175","SEMIMAJOR_AXIS":"6727.858","TLE_LINE1":"1 50192U 21125AN  22033.91667824  .00002388  00000-0  21423-4 0  9998","DECAY_DATE":null,"FILE":"3290513"},{"NORAD_CAT_ID":"50193","EPHEMERIS_TYPE":"0","REV_AT_EPOCH":"370","RA_OF_ASC_NODE":"135.9822","GP_ID":"195194529","MEAN_ELEMENT_THEORY":"SGP4","DECAY_DATE":null,"TLE_LINE1":"1 50193U 21125AP  22033.91667824  .00000696  00000-0  93873-5 0  9998","FILE":"3290513","OBJECT_TYPE":"PAYLOAD","INCLINATION":"53.2175","SEMIMAJOR_AXIS":"6727.906","TLE_LINE2":"2 50193  53.2175 135.9822 0002089  21.5755 255.9851 15.73196366  3709","RCS_SIZE":"LARGE","MEAN_MOTION_DDOT":"0.0000000000000","COUNTRY_CODE":"US","MEAN_MOTION":"15.73196366","ECCENTRICITY":"0.00020890","CENTER_NAME":"EARTH","ARG_OF_PERICENTER":"21.5755","LAUNCH_DATE":"2021-12-18","PERIAPSIS":"348.365","SITE":"AFWTR","OBJECT_NAME":"STARLINK-3261","OBJECT_ID":"2021-125AP","BSTAR":"0.00000938730000","MEAN_MOTION_DOT":"0.00000696","MEAN_ANOMALY":"255.9851","EPOCH":"2022-02-02T22:00:00.999936","TIME_SYSTEM":"UTC","REF_FRAME":"TEME","PERIOD":"91.533","ELEMENT_SET_NO":"999","APOAPSIS":"351.176","CLASSIFICATION_TYPE":"U"},{"PERIAPSIS":"348.174","SITE":"AFWTR","MEAN_MOTION_DOT":"-0.00100057","BSTAR":"-0.00071481000000","MEAN_ANOMALY":"260.4661","OBJECT_ID":"2021-125AQ","OBJECT_NAME":"STARLINK-3269","TIME_SYSTEM":"UTC","EPOCH":"2022-02-02T22:00:00.999936","PERIOD":"91.529","REF_FRAME":"TEME","APOAPSIS":"350.958","ELEMENT_SET_NO":"999","CLASSIFICATION_TYPE":"U","RCS_SIZE":"LARGE","TLE_LINE2":"2 50194  53.2170 135.9728 0002069  20.8908 260.4661 15.73268100  3706","COUNTRY_CODE":"US","MEAN_MOTION_DDOT":"0.0000000000000","ECCENTRICITY":"0.00020690","MEAN_MOTION":"15.73268100","CENTER_NAME":"EARTH","LAUNCH_DATE":"2021-12-18","ARG_OF_PERICENTER":"20.8908","TLE_LINE1":"1 50194U 21125AQ  22033.91667824 -.00100057  00000-0 -71481-3 0  9992","DECAY_DATE":null,"FILE":"3290513","OBJECT_TYPE":"PAYLOAD","INCLINATION":"53.2170","SEMIMAJOR_AXIS":"6727.701","NORAD_CAT_ID":"50194","EPHEMERIS_TYPE":"0","REV_AT_EPOCH":"370","RA_OF_ASC_NODE":"135.9728","GP_ID":"195195279","MEAN_ELEMENT_THEORY":"SGP4"},{"REF_FRAME":"TEME","PERIOD":"91.535","ELEMENT_SET_NO":"999","APOAPSIS":"351.272","CLASSIFICATION_TYPE":"U","PERIAPSIS":"348.410","SITE":"AFWTR","OBJECT_ID":"2021-125AR","OBJECT_NAME":"STARLINK-3266","MEAN_ANOMALY":"254.7411","MEAN_MOTION_DOT":"0.00001952","BSTAR":"0.00001834900000","TIME_SYSTEM":"UTC","EPOCH":"2022-02-02T22:00:00.999936","CENTER_NAME":"EARTH","ARG_OF_PERICENTER":"23.6770","LAUNCH_DATE":"2021-12-18","TLE_LINE2":"2 50195  53.2167 135.9860 0002127  23.6770 254.7411 15.73171768  3705","RCS_SIZE":"LARGE","MEAN_MOTION_DDOT":"0.0000000000000","COUNTRY_CODE":"US","MEAN_MOTION":"15.73171768","ECCENTRICITY":"0.00021270","OBJECT_TYPE":"PAYLOAD","SEMIMAJOR_AXIS":"6727.976","INCLINATION":"53.2167","DECAY_DATE":null,"TLE_LINE1":"1 50195U 21125AR  22033.91667824  .00001952  00000-0  18349-4 0  9990","FILE":"3290513","REV_AT_EPOCH":"370","RA_OF_ASC_NODE":"135.9860","GP_ID":"195193528","MEAN_ELEMENT_THEORY":"SGP4","NORAD_CAT_ID":"50195","EPHEMERIS_TYPE":"0"},{"MEAN_MOTION_DDOT":"0.0000000000000","COUNTRY_CODE":"US","MEAN_MOTION":"15.73226867","ECCENTRICITY":"0.00025070","TLE_LINE2":"2 50196  53.2174 135.9705 0002507  24.0043 259.2201 15.73226867  3700","RCS_SIZE":"LARGE","ARG_OF_PERICENTER":"24.0043","LAUNCH_DATE":"2021-12-18","CENTER_NAME":"EARTH","OBJECT_ID":"2021-125AS","OBJECT_NAME":"STARLINK-3263","BSTAR":"-0.00001668800000","MEAN_MOTION_DOT":"-0.00002967","MEAN_ANOMALY":"259.2201","TIME_SYSTEM":"UTC","EPOCH":"2022-02-02T22:00:00.999936","PERIAPSIS":"347.997","SITE":"AFWTR","CLASSIFICATION_TYPE":"U","REF_FRAME":"TEME","PERIOD":"91.532","ELEMENT_SET_NO":"999","APOAPSIS":"351.370","EPHEMERIS_TYPE":"0","NORAD_CAT_ID":"50196","GP_ID":"195193778","MEAN_ELEMENT_THEORY":"SGP4","REV_AT_EPOCH":"370","RA_OF_ASC_NODE":"135.9705","DECAY_DATE":null,"TLE_LINE1":"1 50196U 21125AS  22033.91667824 -.00002967  00000-0 -16688-4 0  9994","FILE":"3290513","SEMIMAJOR_AXIS":"6727.819","INCLINATION":"53.2174","OBJECT_TYPE":"PAYLOAD"},{"REF_FRAME":"TEME","PERIOD":"91.532","ELEMENT_SET_NO":"999","APOAPSIS":"351.097","CLASSIFICATION_TYPE":"U","PERIAPSIS":"348.288","SITE":"AFWTR","OBJECT_NAME":"STARLINK-3267","OBJECT_ID":"2021-125AT","MEAN_MOTION_DOT":"0.00001775","MEAN_ANOMALY":"263.7026","BSTAR":"0.00001705500000","TIME_SYSTEM":"UTC","EPOCH":"2022-02-02T22:00:00.999936","CENTER_NAME":"EARTH","ARG_OF_PERICENTER":"18.6807","LAUNCH_DATE":"2021-12-18","RCS_SIZE":"MEDIUM","TLE_LINE2":"2 50197  53.2182 135.9759 0002088  18.6807 263.7026 15.73223733  3704","MEAN_MOTION_DDOT":"0.0000000000000","COUNTRY_CODE":"US","MEAN_MOTION":"15.73223733","ECCENTRICITY":"0.00020880","OBJECT_TYPE":"PAYLOAD","SEMIMAJOR_AXIS":"6727.828","INCLINATION":"53.2182","DECAY_DATE":null,"TLE_LINE1":"1 50197U 21125AT  22033.91667824  .00001775  00000-0  17055-4 0  9998","FILE":"3290513","REV_AT_EPOCH":"370","RA_OF_ASC_NODE":"135.9759","GP_ID":"195195029","MEAN_ELEMENT_THEORY":"SGP4","EPHEMERIS_TYPE":"0","NORAD_CAT_ID":"50197"}];
